NORAD_CAT_ID,OBJECT_NAME,OBJECT_TYPE,EPOCH,MEAN_MOTION,ECCENTRICITY,INCLINATION,RA_OF_ASC_NODE,ARG_OF_PERICENTER,MEAN_ANOMALY,BSTAR,MEAN_MOTION_DOT,MEAN_MOTION_DDOT,TLE_LINE0,TLE_LINE1,TLE_LINE2,SEMIMAJOR_AXIS,PERIOD,APOGEE,PERIGEE,DECAYED
52618.0,STARLINK-3983,PAYLOAD,2022-12-31 12:19:00,15.08867606,0.0002485999999999,53.216,95.318,27.7465,332.3659,0.00074234,0.00011555,0.0,0 STARLINK-3983,1 52618U 22052W   22365.51320296  .00011555  00000-0  74234-3 0  9999,2 52618  53.2160  95.3180 0002486  27.7465 332.3659 15.08867606 35239,6917.795999999999,95.436,541.381,537.941,0.0
52618.0,STARLINK-3983,PAYLOAD,2022-12-31 13:54:23,15.08871839,0.0002472,53.2151,95.0208,24.1606,335.9501,0.00066059,0.0001025,0.0,0 STARLINK-3983,1 52618U 22052W   22365.57944236  .00010250  00000-0  66059-3 0  9998,2 52618  53.2151  95.0208 0002472  24.1606 335.9501 15.08871839 35249,6917.783,95.436,541.3580000000002,537.938,0.0
52618.0,STARLINK-3983,PAYLOAD,2022-12-31 23:26:42,15.08862273,0.0002718,53.216,93.2368,28.7658,331.3483,0.00026152,3.879e-05,0.0,0 STARLINK-3983,1 52618U 22052W   22365.97688200  .00003879  00000-0  26152-3 0  9997,2 52618  53.2160  93.2368 0002718  28.7658 331.3483 15.08862273 35685,6917.812,95.436,541.558,537.797,0.0
52618.0,STARLINK-3983,PAYLOAD,2023-01-01 05:48:15,15.08844452,0.000247,53.2156,92.0468,26.5314,333.5804,-0.00042663,-7.073e-05,0.0,0 STARLINK-3983,1 52618U 22052W   23001.24184143 -.00007073  00000-0 -42663-3 0  9999,2 52618  53.2156  92.0468 0002470  26.5314 333.5804 15.08844452 35723,6917.8669999999975,95.437,541.44,538.023,0.0
52618.0,STARLINK-3983,PAYLOAD,2023-01-01 10:34:24,15.08827713,0.0002293,53.2158,91.1546,17.9547,342.1526,-0.00062431,-0.00010207,0.0,0 STARLINK-3983,1 52618U 22052W   23001.44056308 -.00010207  00000-0 -62431-3 0  9990,2 52618  53.2158  91.1546 0002293  17.9547 342.1526 15.08827713 35376,6917.918000000002,95.438,541.369,538.197,0.0
52618.0,STARLINK-3983,PAYLOAD,2023-01-01 12:09:47,15.08828709,0.0002406,53.2158,90.8571,21.8872,338.2223,-0.00039243,-6.527e-05,0.0,0 STARLINK-3983,1 52618U 22052W   23001.50680433 -.00006527  00000-0 -39243-3 0  9994,2 52618  53.2158  90.8571 0002406  21.8872 338.2223 15.08828709 35760,6917.915,95.438,541.444,538.115,0.0
52618.0,STARLINK-3983,PAYLOAD,2023-01-01 23:17:31,15.08808458,0.000294,53.2151,88.7778,23.5507,336.5619,8.3152e-06,-1.56e-06,0.0,0 STARLINK-3983,1 52618U 22052W   23001.97050075 -.00000156  00000-0  83152-5 0  9999,2 52618  53.2151  88.7778 0002940  23.5507 336.5619 15.08808458 35832,6917.977,95.44,541.876,537.808,0.0
52618.0,STARLINK-3983,PAYLOAD,2023-01-02 12:00:36,15.08822626,0.0002734,53.2154,86.398,23.846,336.2658,0.00047762,7.318e-05,0.0,0 STARLINK-3983,1 52618U 22052W   23002.50042811  .00007318  00000-0  47762-3 0  9999,2 52618  53.2154  86.3980 0002734  23.8460 336.2658 15.08822626 35536,6917.933000000001,95.439,541.69,537.9069999999998,0.0
52618.0,STARLINK-3983,PAYLOAD,2023-01-02 15:11:23,15.08823859,0.0002698,53.2159,85.8025,24.5898,335.5223,0.00063282,9.793e-05,0.0,0 STARLINK-3983,1 52618U 22052W   23002.63290999  .00009793  00000-0  63282-3 0  9999,2 52618  53.2159  85.8025 0002698  24.5898 335.5223 15.08823859 35930,6917.93,95.439,541.661,537.928,0.0
52618.0,STARLINK-3983,PAYLOAD,2023-01-03 11:51:24,15.08841576,0.0002799,53.2163,81.9372,26.0823,334.0309,0.00056488,8.714e-05,0.0,0 STARLINK-3983,1 52618U 22052W   23003.49403172  .00008714  00000-0  56488-3 0  9995,2 52618  53.2163  81.9372 0002799  26.0823 334.0309 15.08841576 35681,6917.876,95.437,541.677,537.804,0.0
52618.0,STARLINK-3983,PAYLOAD,2023-01-04 11:42:10,15.08862692,0.0002877,53.2164,77.4773,29.73,330.3855,0.0007417,0.00011543,0.0,0 STARLINK-3983,1 52618U 22052W   23004.48762591  .00011543  00000-0  74170-3 0  9990,2 52618  53.2164  77.4773 0002877  29.7300 330.3855 15.08862692 36211,6917.811,95.436,541.6659999999998,537.686,0.0
52618.0,STARLINK-3983,PAYLOAD,2023-01-04 21:14:29,15.08870612,0.0002928,53.2169,75.6932,27.2524,332.8621,0.00080028,0.00012482,0.0,0 STARLINK-3983,1 52618U 22052W   23004.88505976  .00012482  00000-0  80028-3 0  9998,2 52618  53.2169  75.6932 0002928  27.2524 332.8621 15.08870612 35893,6917.7869999999975,95.436,541.677,537.626,0.0
52618.0,STARLINK-3983,PAYLOAD,2023-01-05 11:32:56,15.08877498,0.0002966,53.2171,73.0169,28.3556,331.7597,0.00046005,7.049e-05,0.0,0 STARLINK-3983,1 52618U 22052W   23005.48120656  .00007049  00000-0  46005-3 0  9993,2 52618  53.2171  73.0169 0002966  28.3556 331.7597 15.08877498 36361,6917.766,95.435,541.683,537.5790000000002,0.0
52618.0,STARLINK-3983,PAYLOAD,2023-01-05 14:43:42,15.08873909,0.0002656,53.2176,72.4253,29.7247,330.3895,0.00023758,3.498e-05,0.0,0 STARLINK-3983,1 52618U 22052W   23005.61368420  .00003498  00000-0  23758-3 0  9995,2 52618  53.2176  72.4253 0002656  29.7247 330.3895 15.08873909 36001,6917.776999999999,95.435,541.479,537.804,0.0
52618.0,STARLINK-3983,PAYLOAD,2023-01-06 05:02:10,15.08851924,0.0002869,53.216,69.7435,22.1643,337.9472,-0.00014388,-2.579e-05,0.0,0 STARLINK-3983,1 52618U 22052W   23006.20984351 -.00002579  00000-0 -14388-3 0  9998,2 52618  53.2160  69.7435 0002869  22.1643 337.9472 15.08851924 36476,6917.844,95.437,541.694,537.724,0.0
52618.0,STARLINK-3983,PAYLOAD,2023-01-06 14:34:30,15.08810351,0.0003003,53.2168,67.962,21.9046,338.2074,-0.00090056,-0.00014582,0.0,0 STARLINK-3983,1 52618U 22052W   23006.60729645 -.00014582  00000-0 -90056-3 0  9998,2 52618  53.2168  67.9620 0003003  21.9046 338.2074 15.08810351 36533,6917.971,95.439,541.913,537.759,0.0
52618.0,STARLINK-3983,PAYLOAD,2023-01-07 03:17:35,15.08835059,0.0002868,53.2187,65.5866,16.9419,343.1669,3.2364000000000004e-05,2.26e-06,0.0,0 STARLINK-3983,1 52618U 22052W   23007.13721648  .00000226  00000-0  32364-4 0  9999,2 52618  53.2187  65.5866 0002868  16.9419 343.1669 15.08835059 36612,6917.895,95.438,541.745,537.776,0.0
52618.0,STARLINK-3983,PAYLOAD,2023-01-07 04:52:58,15.0883299,0.0002944,53.2172,65.2877,15.4948,344.6134,4.1058e-05,3.65e-06,0.0,0 STARLINK-3983,1 52618U 22052W   23007.20345740  .00000365  00000-0  41058-4 0  9996,2 52618  53.2172  65.2877 0002944  15.4948 344.6134 15.08832990 36244,6917.901999999999,95.438,541.803,537.73,0.0
52618.0,STARLINK-3983,PAYLOAD,2023-01-07 20:46:50,15.08836262,0.0002912,53.2183,62.3151,18.6547,341.4552,0.00041593,6.337e-05,0.0,0 STARLINK-3983,1 52618U 22052W   23007.86586312  .00006337  00000-0  41593-3 0  9998,2 52618  53.2183  62.3151 0002912  18.6547 341.4552 15.08836262 36340,6917.892,95.438,541.771,537.742,0.0
52618.0,STARLINK-3983,PAYLOAD,2023-01-08 03:08:23,15.08826598,0.0002863,53.2143,61.1219,28.4721,331.6427,8.5163e-05,1.067e-05,0.0,0 STARLINK-3983,1 52618U 22052W   23008.13082898  .00001067  00000-0  85163-4 0  9996,2 52618  53.2143  61.1219 0002863  28.4721 331.6427 15.08826598 36765,6917.920999999999,95.438,541.7669999999998,537.806,0.0
52618.0,STARLINK-3983,PAYLOAD,2023-01-08 09:29:56,15.08818884,0.0002966,53.2147,59.9322,26.1118,334.0023,0.0002543,3.759e-05,0.0,0 STARLINK-3983,1 52618U 22052W   23008.39579624  .00003759  00000-0  25430-3 0  9992,2 52618  53.2147  59.9322 0002966  26.1118 334.0023 15.08818884 36801,6917.945,95.439,541.862,537.758,0.0
52618.0,STARLINK-3983,PAYLOAD,2023-01-09 02:59:10,15.08843849,0.0002855,53.217,56.6618,32.6466,327.4702,0.00015573,2.191e-05,0.0,0 STARLINK-3983,1 52618U 22052W   23009.12442775  .00002191  00000-0  15573-3 0  9996,2 52618  53.2170  56.6618 0002855  32.6466 327.4702 15.08843849 36915,6917.8690000000015,95.437,541.7090000000002,537.759,0.0
52618.0,STARLINK-3983,PAYLOAD,2023-01-09 20:28:25,15.088448800000002,0.0003017,53.2147,53.3897,29.3587,330.7574,0.00021856,3.192e-05,0.0,0 STARLINK-3983,1 52618U 22052W   23009.85306798  .00003192  00000-0  21856-3 0  9993,2 52618  53.2147  53.3897 0003017  29.3587 330.7574 15.08844880 36640,6917.865,95.437,541.818,537.643,0.0
52618.0,STARLINK-3983,PAYLOAD,2023-01-10 09:11:29,15.08848508,0.000295,53.2167,51.0115,16.8851,343.2239,0.00028171,4.199e-05,0.0,0 STARLINK-3983,1 52618U 22052W   23010.38298507  .00004199  00000-0  28171-3 0  9996,2 52618  53.2167  51.0115 0002950  16.8851 343.2239 15.08848508 37100,6917.854,95.437,541.76,537.679,0.0
52618.0,STARLINK-3983,PAYLOAD,2023-01-10 12:22:16,15.08851035,0.0003109,53.2169,50.417,20.1582,339.9532,0.00021909,3.201e-05,0.0,0 STARLINK-3983,1 52618U 22052W   23010.51546325  .00003201  00000-0  21909-3 0  9990,2 52618  53.2169  50.4170 0003109  20.1582 339.9532 15.08851035 36748,6917.847,95.437,541.862,537.561,0.0
52618.0,STARLINK-3983,PAYLOAD,2023-01-11 09:02:16,15.08848346,0.000299,53.2176,46.5507,18.8637,341.2465,5.7984e-05,6.35e-06,0.0,0 STARLINK-3983,1 52618U 22052W   23011.37658047  .00000635  00000-0  57984-4 0  9991,2 52618  53.2176  46.5507 0002990  18.8637 341.2465 15.08848346 37257,6917.855,95.437,541.788,537.651,0.0
52618.0,STARLINK-3983,PAYLOAD,2023-01-12 00:56:08,15.08842816,0.0003038,53.2157,43.5763,22.786,337.3266,-2.3426e-05,-6.62e-06,0.0,0 STARLINK-3983,1 52618U 22052W   23012.03898535 -.00000662  00000-0 -23426-4 0  9999,2 52618  53.2157  43.5763 0003038  22.7860 337.3266 15.08842816 37355,6917.871999999999,95.437,541.8380000000002,537.635,0.0
52618.0,STARLINK-3983,PAYLOAD,2023-01-12 18:25:23,15.08829579,0.0002985,53.2162,40.306,20.5888,339.5224,-2.4076e-05,-6.72e-06,0.0,0 STARLINK-3983,1 52618U 22052W   23012.76763662 -.00000672  00000-0 -24076-4 0  9994,2 52618  53.2162  40.3060 0002985  20.5888 339.5224 15.08829579 37463,6917.911999999998,95.438,541.842,537.712,0.0
52618.0,STARLINK-3983,PAYLOAD,2023-01-13 11:54:38,15.08838359,0.0002622,53.2162,37.0363,31.5455,328.5694,8.9164e-05,1.131e-05,0.0,0 STARLINK-3983,1 52618U 22052W   23013.49627394  .00001131  00000-0  89164-4 0  9994,2 52618  53.2162  37.0363 0002622  31.5455 328.5694 15.08838359 37579,6917.885,95.438,541.564,537.937,0.0
